ORBCOMM FM20            
1 25416U 98046D   24148.43506792  .00001228  00000+0  47363-3 0  9998
2 25416  44.9937 205.4350 0001914 257.0371 103.0262 14.35302128348801
ORBCOMM FM16            
1 25417U 98046E   24148.93844337  .00001303  00000+0  48955-3 0  9996
2 25417  44.9934 198.6950 0003684 194.9818 165.0921 14.36308495348814
ORBCOMM FM15            
1 25418U 98046F   24148.13313836  .00001368  00000+0  51445-3 0  9993
2 25418  44.9954 206.6021 0003529 194.8146 165.2599 14.36026458348704
ORBCOMM FM13            
1 25420U 98046H   24147.86203950  .00001481  00000+0  55908-3 0  9994
2 25420  44.9960 211.9407 0003758 165.3519 194.7437 14.35471050348813
ORBCOMM FM21            
1 25475U 98053A   24148.71831861  .00001373  00000+0  52287-3 0  9992
2 25475  45.0092 292.2402 0001175 182.5395 177.5446 14.35396459341824
ORBCOMM FM22            
1 25476U 98053B   24148.68951447  .00001367  00000+0  51500-3 0  9992
2 25476  45.0082 289.5911 0001747 120.7478 239.3541 14.35940566341815
ORBCOMM FM23            
1 25477U 98053C   24148.67640243  .00001250  00000+0  47987-3 0  9996
2 25477  45.0089 294.8585 0001371 133.2275 226.8687 14.35441849341964
